{"spkid": "50046148", "covariance": {"epoch": "2453230.5", "data": [["1.271473655667957E-13", "-1.814136185801794E-13", "2.471638167963444E-11", "-1.892431733350792E-12", "6.773036421850556E-12", "2.958608056792651E-12"], ["-1.814136185801794E-13", "2.588720853463493E-13", "-3.556653502153135E-11", "2.717021506908671E-12", "-9.97891517821125E-12", "-4.215181663629486E-12"], ["2.471638167963444E-11", "-3.556653502153135E-11", "7.856734341795929E-9", "-5.064333214218682E-10", "4.464420064779628E-9", "4.012190550469304E-10"], ["-1.892431733350792E-12", "2.717021506908671E-12", "-5.064333214218682E-10", "4.448018151363249E-10", "-6.403793150737052E-10", "-8.978851476137384E-10"], ["6.773036421850556E-12", "-9.97891517821125E-12", "4.464420064779628E-9", "-6.403793150737052E-10", "3.998194252118105E-9", "7.908535049401004E-10"], ["2.958608056792651E-12", "-4.215181663629486E-12", "4.012190550469304E-10", "-8.978851476137384E-10", "7.908535049401004E-10", "3.617424143600241E-9"]], "elements": [{"sigma": 3.5657729255632e-07, "name": "e", "value": ".522853046354395", "title": "eccentricity", "units": null, "label": "e"}, {"label": "q", "units": "au", "title": "perihelion distance", "value": ".6718199561462447", "sigma": 5.08794737931073e-07, "name": "q"}, {"units": "TDB", "title": "time of perihelion passage", "value": "2452936.610365378568", "sigma": 8.86382216755048e-05, "name": "tp", "label": "tp"}, {"sigma": 2.10903251548269e-05, "name": "om", "title": "longitude of the ascending node", "value": "154.9327484010766", "units": "deg", "label": "node"}, {"label": "peri", "name": "w", "sigma": 6.32312759013932e-05, "value": "79.27722563247681", "title": "argument of perihelion", "units": "deg"}, {"label": "i", "units": "deg", "title": "inclination", "value": "9.121947546826609", "name": "i", "sigma": 6.0145025925676e-05}], "labels": ["e", "q", "tp", "node", "peri", "i"]}, "elements": [{"label": "e", "name": "e", "sigma": "3.5652E-7", "units": null, "title": "eccentricity", "value": ".5229037807451297"}, {"label": "a", "value": "1.408553079342017", "title": "semi-major axis", "units": "au", "name": "a", "sigma": "1.0944E-8"}, {"label": "q", "value": ".6720153487738819", "title": "perihelion distance", "units": "au", "sigma": "5.0725E-7", "name": "q"}, {"value": "9.123036797071475", "title": "inclination; angle with respect to x-y ecliptic plane", "units": "deg", "name": "i", "sigma": "6.0116E-5", "label": "i"}, {"name": "om", "sigma": "2.1179E-5", "title": "longitude of the ascending node", "value": "154.6973313652564", "units": "deg", "label": "node"}, {"label": "peri", "title": "argument of perihelion", "value": "79.65389838108547", "units": "deg", "sigma": "6.3593E-5", "name": "w"}, {"label": "M", "name": "ma", "sigma": "2.2019E-5", "title": "mean anomaly", "value": "191.1153701810951", "units": "deg"}, {"label": "tp", "units": "TDB", "title": "time of perihelion passage", "value": "2461486.948055499234", "name": "tp", "sigma": "4.0148E-5"}, {"label": "period", "units": "d", "title": "sidereal orbital period", "value": "610.6020428875097", "sigma": "7.1161E-6", "name": "per"}, {"name": "n", "sigma": "6.8711E-9", "title": "mean motion", "value": ".5895820431546154", "units": "deg/d", "label": "n"}, {"label": "Q", "name": "ad", "sigma": "1.6666E-8", "title": "aphelion distance", "value": "2.145090809910153", "units": "au"}], "epoch": "2461200.5"}